,id,spkid,full_name,pdes,name,prefix,neo,pha,H,diameter,albedo,diameter_sigma,orbit_id,epoch,epoch_mjd,epoch_cal,equinox,e,a,q,i,om,w,ma,ad,n,tp,tp_cal,per,per_y,moid,moid_ld,sigma_e,sigma_a,sigma_q,sigma_i,sigma_om,sigma_w,sigma_ma,sigma_ad,sigma_n,sigma_tp,sigma_per,class,rms
420,bK16D02F,3744844,       (2016 DF2),2016 DF2,,,N,N,17.035,,,,JPL 5,2457447.5,57447,20160229.0,J2000,0.4146746971736904,5.584657063861211,3.268841087085653,166.7702418667521,133.7861305429956,6.875892692221983,352.744543844694,7.900473040636769,0.0746808598232229,2457544.652820314,20160605.1528203,4820.512255110027,13.1978432720329,2.28476,889.1600492,1.0084,10.514,0.52309,2.4967,3.388,56.857,42.205,14.874,0.2109,291.05,13613.0,CEN,0.29727
421,bK16F14D,3748502,       (2016 FD14),2016 FD14,,,N,N,12.1,,,,4,2459000.5,59000,20200531.0,J2000,0.5128534205159813,21.65044621073615,10.54694081586285,19.97060737868067,216.3188828586759,325.5773903153703,15.75900587316748,32.75395160560945,0.0097837150780144,2457389.761569096,20160102.2615691,36795.8385060678,100.741515417023,9.56949,3724.1584233,1.0349e-05,0.00050457,2.2091e-05,1.7831e-05,3.1009e-05,0.0002181,0.00058681,0.00076334,3.4202e-07,0.0062323,1.2863,CEN,0.77644
422,bK16GK6R,3751383,       (2016 GR206),2016 GR206,,,N,N,9.2,,,,JPL 9,2459000.5,59000,20200531.0,J2000,0.0783731612628071,20.2122574353683,18.62815892390081,14.23231206457896,93.47379024332372,72.92277836054078,25.79311473471489,21.79635594683579,0.0108463057401621,2456622.444710704,20131125.9447107,33191.02454091605,90.8720726650679,17.665,6874.68805,9.8072e-06,0.00027294,5.408e-05,7.6353e-06,0.0001206,0.0016972,0.0017317,0.00029434,2.197e-07,0.1329,0.67231,CEN,0.66108
423,bK16GO1C,3752086,       (2016 GC241),2016 GC241,,,N,N,11.1,,,,3,2459000.5,59000,20200531.0,J2000,0.3609306924005125,21.69934351992573,13.86738443864237,4.184551476433104,330.1058397251642,183.3748247618728,27.69961838090846,29.5313026012091,0.0097506637738866,2456159.706898807,20120820.2068988,36920.5633942707,101.082993550365,12.8779,5011.692343,1.1045e-05,0.0004427,4.4197e-05,1.7717e-05,0.00015652,0.00059507,0.0010844,0.00060249,2.984e-07,0.025766,1.1299,CEN,0.88461
424,bK16GP1Z,3752444,       (2016 GZ251),2016 GZ251,,,N,N,11.1,,,,4,2459000.5,59000,20200531.0,J2000,0.4286101587922652,17.87824362420987,10.21544678551047,29.33336320690578,37.3439452640581,85.57826713920464,52.84552272398472,25.54104046290927,0.0130381747425884,2454947.3619061094,20090425.8619061,27611.22680953808,75.5954190541768,9.36895,3646.1142715,7.425e-06,0.00030731,4.566e-05,2.153e-05,2.6369e-05,0.00082088,0.0016316,0.00043902,3.3617e-07,0.020999,0.71191,CEN,0.75978
425,bK16J24K,3753111,       (2016 JK24),2016 JK24,,,N,N,13.2,,,,17,2459000.5,59000,20200531.0,J2000,0.6606511340315073,13.06006075475063,4.431916806604242,152.316578919583,36.72099654846986,284.5651827176359,15.80611337541841,21.68820470289701,0.0208826821385851,2458243.599460571,20180505.0994606,17239.1648549218,47.1982610675477,3.57939,1392.9912063,1.7984e-06,7.0981e-05,7.7747e-07,1.138e-05,1.6834e-05,4.1595e-05,0.00012338,0.00011787,1.7024e-07,0.00038231,0.14054,CEN,0.42492
426,bK16K04X,3785118,       (2016 KX4),2016 KX4,,,N,N,14.8,,,,9,2459000.5,59000,20200531.0,J2000,0.6766738461746183,7.040215486114913,2.276285795227424,37.55615808739429,84.08628591314557,252.7061821932253,58.68812579623716,11.8041451770024,0.0527624733283557,2457888.1919125644,20170514.6919126,6823.031167618296,18.6804412528906,1.52728,594.3715576,4.9366e-06,0.00010852,1.0982e-06,3.468e-05,2.6551e-05,0.0001071,0.0013493,0.00018195,1.22e-06,0.00048778,0.15776,CEN,0.56355
427,bK16L00S,3753687,       (2016 LS),2016 LS,,,N,N,13.3,,,,4,2459000.5,59000,20200531.0,J2000,0.6063458135669066,13.32438061947473,5.245198212484203,114.3326621437463,117.5188441775825,141.1748496166499,39.25959197448599,21.40356302646526,0.0202643897031927,2457063.1314165136,20150209.6314165,17765.15381281283,48.6383403499325,4.3837,1706.004529,1.8361e-05,0.00065581,2.4267e-05,5.3963e-05,3.1285e-05,0.00092659,0.0029366,0.0010535,1.4961e-06,0.0085559,1.3116,CEN,0.37736
428,bK16N21D,3755133,       (2016 ND21),2016 ND21,,,N,N,12.3,,,,JPL 59,2459000.5,59000,20200531.0,J2000,0.5552511352192353,8.461311626945314,3.763158740640213,21.83529044856583,286.8173225763041,60.48034747419602,39.92085063457563,13.15946451325041,0.040044929971194,2458003.598503024,20170907.098503,8989.902098941437,24.6130105378273,2.82539,1099.5570263,6.9915e-07,1.3315e-05,4.1858e-07,8.408e-06,2.5452e-05,3.5504e-05,9.0163e-05,2.0709e-05,9.4527e-08,0.00019016,0.021221,CEN,0.33941
429,bK16NA0L,3934651,       (2016 NL100),2016 NL100,,,N,N,16.3,,,,1,2459000.5,59000,20200531.0,J2000,0.760114338638849,13.86665724244382,3.32641224347203,21.9272875888044,334.6038853647143,344.9396364167168,26.15278845523137,24.40690224141562,0.0190873836505091,2457630.33901125,20160829.8390113,18860.62577206059,51.6375791158401,2.3201,902.913317,4.4361e-05,0.0032045,0.00015866,0.0018791,0.0013749,0.0085443,0.0096319,0.0056402,6.6164e-06,0.035997,6.5378,CEN,0.59365
430,bK16P84W,3785509,       (2016 PW84),2016 PW84,,,N,N,14.6,,,,JPL 5,2459000.5,59000,20200531.0,J2000,0.2803491124682483,5.811422744520879,4.182195535916659,14.53667486909791,300.0556800164183,87.47921371272592,62.91003346276712,7.440649953125098,0.0703526354053716,2458106.289952284,20171218.7899523,5117.079096265278,14.0097990315271,3.22839,1256.3925363,1.2663e-05,0.00010452,1.7644e-06,1.4935e-05,6.1277e-05,0.00032605,0.0018391,0.00013383,1.898e-06,0.0020907,0.13805,CEN,0.4968
431,bK16Q86F,3781379,       (2016 QF86),2016 QF86,,,N,N,8.4,,,,2,2459000.5,59000,20200531.0,J2000,0.3069962025244183,21.16156746027898,14.66504661050903,13.63239453956749,274.8160465695289,227.1069695824048,212.6028958292578,27.65808831004892,0.0101247037384319,2473558.664661277,20600409.1646613,35556.59595583937,97.3486542254329,13.694,5329.29398,3.1809e-05,0.00058554,0.00092862,0.00010237,0.00066548,0.021074,0.038243,0.0007653,4.2022e-07,3.6756,1.4758,CEN,0.67421
432,bK16T02K,3760231,       (2016 TK2),2016 TK2,,,N,N,14.9,,,,4,2459000.5,59000,20200531.0,J2000,0.5513783144012339,9.18507486578646,4.120623768639982,92.3466699053066,323.3159016196133,5.400216605016885,49.38787403970647,14.24952596293294,0.0354062574671841,2457605.6088826465,20160805.1088826,10167.69423692017,27.8376296698704,3.11157,1210.9296969,5.9194e-05,0.001295,3.814e-05,0.0010748,0.00012151,0.0041983,0.009749,0.002009,7.4878e-06,0.028729,2.1503,CEN,0.54127
433,bK16T93P,3761427,       (2016 TP93),2016 TP93,,,N,N,15.735,,,,3,2459000.5,59000,20200531.0,J2000,0.5588148664101363,7.46373993160229,3.292891098803956,138.3033872633589,347.2740932393847,331.8760249555598,64.57248832336431,11.63458876440062,0.0483358462380977,2457664.586938598,20161003.0869386,7447.888637899799,20.3912077697462,2.3392,910.346464,0.0039433,0.069274,0.0011325,0.019669,0.020275,0.074536,0.88877,0.10799,0.00067294,0.29512,103.69,CEN,0.44804
434,bK16TA0T,3841526,       (2016 TT100),2016 TT100,,,N,N,15.0,,,,2,2459000.5,59000,20200531.0,J2000,0.5874357644732364,8.902685211978438,3.672929518615307,9.709753058333488,55.2588547494741,45.00154172136157,35.56220499051385,14.13244090534157,0.037104155177132,2458042.0573452422,20171015.5573452,9702.417378360738,26.5637710564291,2.69924,1050.4632308,4.0138e-06,9.1132e-05,2.5094e-06,1.7961e-05,0.00013948,0.00018719,0.00054504,0.00014467,5.6972e-07,0.00078873,0.14898,CEN,0.54681
435,bK16V01F,3763322,       (2016 VF1),2016 VF1,,,N,N,13.766,,,,JPL 4,2459000.5,59000,20200531.0,J2000,0.1461270480785846,8.046017545165993,6.870276752502386,22.52140864046411,93.04959794702772,351.9343132126168,32.43568407918237,9.221758337829598,0.0431849688835216,2458249.412644428,20180510.9126444,8336.233863476684,22.8233644448369,5.88802,2291.4407434,2.4419e-06,2.7002e-05,3.5142e-06,9.2537e-06,2.1625e-05,0.00029957,0.00011562,3.0947e-05,2.1739e-07,0.005333,0.041963,CEN,0.72287
436,bK16V17Y,3764851,       (2016 VY17),2016 VY17,,,N,N,15.7,,,,12,2459000.5,59000,20200531.0,J2000,0.8505962407317557,11.13959881692145,1.664297939988152,148.5119397317818,286.348333232795,289.5599195151783,28.19595959568756,20.61489969385476,0.0265093908490912,2457936.878442032,20170702.378442,13580.09326013392,37.180269021585,0.884396,344.18039132,7.3343e-07,5.3157e-05,4.2642e-07,2.686e-05,2.5053e-05,2.9332e-05,0.00020083,9.8373e-05,1.8975e-07,8.59e-05,0.097205,CEN,0.56826
437,bK16W01S,3763976,       (2016 WS1),2016 WS1,,,N,N,17.3,,,,7,2459000.5,59000,20200531.0,J2000,0.8819097759120617,14.37475295408156,1.697517797556245,52.98428865031649,86.3865943387338,3.270667143082638,24.35317985446832,27.05198811060687,0.0180843743944,2457653.8579031625,20160922.3579032,19906.68806942403,54.5015416000658,0.714742,278.15614414,0.00020976,0.026157,8.3147e-05,0.0018786,0.0028371,0.0039064,0.066603,0.049224,4.936e-05,0.007413,54.334,CEN,0.69009
438,bK17A13X,3766461,       (2017 AX13),2017 AX13,,,N,N,14.9,,,,4,2459000.5,59000,20200531.0,J2000,0.8830950748894733,28.67810190759612,3.352611355819579,137.2215210041306,166.0828417076978,302.3355901488065,10.16016352437371,54.00359245937266,0.0064176860584194,2457417.3494015,20160129.8494015,56094.98450422192,153.579697479047,2.55748,995.2944916,0.00036369,0.099747,0.0012892,0.0059897,0.0017315,0.038471,0.053785,0.18783,3.3482e-05,0.12212,292.66,CEN,0.633
439,bK17A19O,3766498,       (2017 AO19),2017 AO19,,,N,N,17.7,,,,JPL 7,2459000.5,59000,20200531.0,J2000,0.692772389539843,6.64684691400645,2.04209489448467,23.67389369634292,274.0396049420887,201.3058396756675,71.43374021183975,11.25159893352823,0.0575149251794961,2457758.4964680662,20170104.9964681,6259.2448634244,17.1368784761791,1.074,417.96858,3.1962e-05,0.0007666,2.3445e-05,0.00034742,0.00041399,0.0018073,0.012267,0.0012977,9.95e-06,0.0025924,1.0828,CEN,0.53408
